CTC2_L_00015016-03
1 50247U 22744NJ  26037.47790509  .00000000  00000+0  00000-0 0  9995
2 50247  85.0000 180.0000 0000000   0.0000   0.0000 15.80155563    12
CTC2_L_00015016-04
1 50248U 24261DI  26037.47790509  .00000000  00000+0  00000-0 0  9992
2 50248  85.0000 180.0000 0000000   0.0000  90.0000 15.80155563    12
CTC2_L_00015017-01
1 50249U 23467KD  26037.47790509  .00000000  00000+0  00000-0 0  9990
2 50249  85.0000 192.0000 0000000   0.0000 192.0000 15.80155563    19
CTC2_L_00015017-02
1 50250U 23377IZ  26037.47790509  .00000000  00000+0  00000-0 0  9992
2 50250  85.0000 192.0000 0000000   0.0000 282.0000 15.80155563    11
CTC2_L_00015017-03
1 50251U 23001IJ  26037.47790509  .00000000  00000+0  00000-0 0  9997
2 50251  85.0000 192.0000 0000000   0.0000  12.0000 15.80155563    13
CTC2_L_00015017-04
1 50252U 22104HY  26037.47790509  .00000000  00000+0  00000-0 0  9991
2 50252  85.0000 192.0000 0000000   0.0000 102.0000 15.80155563    14
CTC2_L_00015018-01
1 50253U 26269GH  26037.47790509  .00000000  00000+0  00000-0 0  9998
2 50253  85.0000 204.0000 0000000   0.0000 204.0000 15.80155563    12
CTC2_L_00015018-02
1 50254U 26309XN  26037.47790509  .00000000  00000+0  00000-0 0  9994
2 50254  85.0000 204.0000 0000000   0.0000 294.0000 15.80155563    12
CTC2_L_00015018-03
1 50255U 24308UT  26037.47790509  .00000000  00000+0  00000-0 0  9992
2 50255  85.0000 204.0000 0000000   0.0000  24.0000 15.80155563    14
CTC2_L_00015018-04
1 50256U 26308DJ  26037.47790509  .00000000  00000+0  00000-0 0  9995
2 50256  85.0000 204.0000 0000000   0.0000 114.0000 15.80155563    15
CTC2_L_00015019-01
1 50257U 22663CG  26037.47790509  .00000000  00000+0  00000-0 0  9996
2 50257  85.0000 216.0000 0000000   0.0000 216.0000 15.80155563    12
CTC2_L_00015019-02
1 50258U 24665ZX  26037.47790509  .00000000  00000+0  00000-0 0  9991
2 50258  85.0000 216.0000 0000000   0.0000 306.0000 15.80155563    13
CTC2_L_00015019-03
1 50259U 26738ZR  26037.47790509  .00000000  00000+0  00000-0 0  9995
2 50259  85.0000 216.0000 0000000   0.0000  36.0000 15.80155563    14
CTC2_L_00015019-04
1 50260U 24988WP  26037.47790509  .00000000  00000+0  00000-0 0  9992
2 50260  85.0000 216.0000 0000000   0.0000 126.0000 15.80155563    16
CTC2_L_00015020-01
1 50261U 25449WC  26037.47790509  .00000000  00000+0  00000-0 0  9996
2 50261  85.0000 228.0000 0000000   0.0000 228.0000 15.80155563    13
CTC2_L_00015020-02
1 50262U 25319CO  26037.47790509  .00000000  00000+0  00000-0 0  9993
2 50262  85.0000 228.0000 0000000   0.0000 318.0000 15.80155563    14
CTC2_L_00015020-03
1 50263U 25497NL  26037.47790509  .00000000  00000+0  00000-0 0  9991
2 50263  85.0000 228.0000 0000000   0.0000  48.0000 15.80155563    15
CTC2_L_00015020-04
1 50264U 22174UH  26037.47790509  .00000000  00000+0  00000-0 0  9991
2 50264  85.0000 228.0000 0000000   0.0000 138.0000 15.80155563    16
CTC2_L_00015021-01
1 50265U 23404XC  26037.47790509  .00000000  00000+0  00000-0 0  9999
2 50265  85.0000 240.0000 0000000   0.0000 240.0000 15.80155563    15
CTC2_L_00015021-02
1 50266U 26117CY  26037.47790509  .00000000  00000+0  00000-0 0  9994
2 50266  85.0000 240.0000 0000000   0.0000 330.0000 15.80155563    16
CTC2_L_00015021-03
1 50267U 24837DG  26037.47790509  .00000000  00000+0  00000-0 0  9992
2 50267  85.0000 240.0000 0000000   0.0000  60.0000 15.80155563    17
CTC2_L_00015021-04
1 50268U 22280UA  26037.47790509  .00000000  00000+0  00000-0 0  9993
2 50268  85.0000 240.0000 0000000   0.0000 150.0000 15.80155563    18
CTC2_L_00015022-01
1 50269U 23521EC  26037.47790509  .00000000  00000+0  00000-0 0  9993
2 50269  85.0000 252.0000 0000000   0.0000 252.0000 15.80155563    15
CTC2_L_00015022-02
1 50270U 22272PT  26037.47790509  .00000000  00000+0  00000-0 0  9997
2 50270  85.0000 252.0000 0000000   0.0000 342.0000 15.80155563    17
CTC2_L_00015022-03
1 50271U 24848BK  26037.47790509  .00000000  00000+0  00000-0 0  9999
2 50271  85.0000 252.0000 0000000   0.0000  72.0000 15.80155563    18
CTC2_L_00015022-04
1 50272U 26308XZ  26037.47790509  .00000000  00000+0  00000-0 0  9993
2 50272  85.0000 252.0000 0000000   0.0000 162.0000 15.80155563    19
CTC2_L_00015023-01
1 50273U 23412LT  26037.47790509  .00000000  00000+0  00000-0 0  9997
2 50273  85.0000 264.0000 0000000   0.0000 264.0000 15.80155563    16
CTC2_L_00015023-02
1 50274U 22554HF  26037.47790509  .00000000  00000+0  00000-0 0  9994
2 50274  85.0000 264.0000 0000000   0.0000 354.0000 15.80155563    17
CTC2_L_00015023-03
1 50275U 26884QK  26037.47790509  .00000000  00000+0  00000-0 0  9995
2 50275  85.0000 264.0000 0000000   0.0000  84.0000 15.80155563    18
CTC2_L_00015023-04
1 50276U 23173OG  26037.47790509  .00000000  00000+0  00000-0 0  9994
2 50276  85.0000 264.0000 0000000   0.0000 174.0000 15.80155563    19
CTC2_L_00015024-01
1 50277U 25730XS  26037.47790509  .00000000  00000+0  00000-0 0  9996
2 50277  85.0000 276.0000 0000000   0.0000 276.0000 15.80155563    16
CTC2_L_00015024-02
1 50278U 24578ZG  26037.47790509  .00000000  00000+0  00000-0 0  9996
2 50278  85.0000 276.0000 0000000   0.0000   6.0000 15.80155563    18
CTC2_L_00015024-03
1 50279U 24187CL  26037.47790509  .00000000  00000+0  00000-0 0  9993
2 50279  85.0000 276.0000 0000000   0.0000  96.0000 15.80155563    18
CTC2_L_00015024-04
1 50280U 24419WV  26037.47790509  .00000000  00000+0  00000-0 0  9993
2 50280  85.0000 276.0000 0000000   0.0000 186.0000 15.80155563    10
CTC2_L_00015025-01
1 50281U 23721HB  26037.47790509  .00000000  00000+0  00000-0 0  9999
2 50281  85.0000 288.0000 0000000   0.0000 288.0000 15.80155563    17
CTC2_L_00015025-02
1 50282U 23982OU  26037.47790509  .00000000  00000+0  00000-0 0  9999
2 50282  85.0000 288.0000 0000000   0.0000  18.0000 15.80155563    19
CTC2_L_00015025-03
1 50283U 23538DK  26037.47790509  .00000000  00000+0  00000-0 0  9997
2 50283  85.0000 288.0000 0000000   0.0000 108.0000 15.80155563    10
CTC2_L_00015025-04
1 50284U 24752GC  26037.47790509  .00000000  00000+0  00000-0 0  9997
2 50284  85.0000 288.0000 0000000   0.0000 198.0000 15.80155563    10
CTC2_L_00015026-01
1 50285U 22199ND  26037.47790509  .00000000  00000+0  00000-0 0  9991
2 50285  85.0000 300.0000 0000000   0.0000 300.0000 15.80155563    11
CTC2_L_00015026-02
1 50286U 23198KM  26037.47790509  .00000000  00000+0  00000-0 0  9992
2 50286  85.0000 300.0000 0000000   0.0000  30.0000 15.80155563    12
CTC2_L_00015026-03
1 50287U 23822FJ  26037.47790509  .00000000  00000+0  00000-0 0  9997
2 50287  85.0000 300.0000 0000000   0.0000 120.0000 15.80155563    13
CTC2_L_00015026-04
1 50288U 22107GQ  26037.47790509  .00000000  00000+0  00000-0 0  9993
2 50288  85.0000 300.0000 0000000   0.0000 210.0000 15.80155563    14
CTC2_L_00015027-01
1 50289U 26027FL  26037.47790509  .00000000  00000+0  00000-0 0  9999
2 50289  85.0000 312.0000 0000000   0.0000 312.0000 15.80155563    11
CTC2_L_00015027-02
1 50290U 25898SH  26037.47790509  .00000000  00000+0  00000-0 0  9996
2 50290  85.0000 312.0000 0000000   0.0000  42.0000 15.80155563    13
CTC2_L_00015027-03
1 50291U 24252YX  26037.47790509  .00000000  00000+0  00000-0 0  9990
2 50291  85.0000 312.0000 0000000   0.0000 132.0000 15.80155563    14
CTC2_L_00015027-04
1 50292U 22248DD  26037.47790509  .00000000  00000+0  00000-0 0  9994
2 50292  85.0000 312.0000 0000000   0.0000 222.0000 15.80155563    15
CTC2_L_00015028-01
1 50293U 24879ZI  26037.47790509  .00000000  00000+0  00000-0 0  9997
2 50293  85.0000 324.0000 0000000   0.0000 324.0000 15.80155563    12
CTC2_L_00015028-02
1 50294U 25759GM  26037.47790509  .00000000  00000+0  00000-0 0  9996
2 50294  85.0000 324.0000 0000000   0.0000  54.0000 15.80155563    13
CTC2_L_00015028-03
1 50295U 24798BX  26037.47790509  .00000000  00000+0  00000-0 0  9999
2 50295  85.0000 324.0000 0000000   0.0000 144.0000 15.80155563    14
CTC2_L_00015028-04
1 50296U 22650QI  26037.47790509  .00000000  00000+0  00000-0 0  9995
2 50296  85.0000 324.0000 0000000   0.0000 234.0000 15.80155563    15
CTC2_L_00015029-01
1 50297U 25873CD  26037.47790509  .00000000  00000+0  00000-0 0  9996
2 50297  85.0000 336.0000 0000000   0.0000 336.0000 15.80155563    12
CTC2_L_00015029-02
1 50298U 25979TT  26037.47790509  .00000000  00000+0  00000-0 0  9994
2 50298  85.0000 336.0000 0000000   0.0000  66.0000 15.80155563    13
CTC2_L_00015029-03
1 50299U 26820NY  26037.47790509  .00000000  00000+0  00000-0 0  9991
2 50299  85.0000 336.0000 0000000   0.0000 156.0000 15.80155563    14
CTC2_L_00015029-04
1 50300U 22720BP  26037.47790509  .00000000  00000+0  00000-0 0  9999
2 50300  85.0000 336.0000 0000000   0.0000 246.0000 15.80155563    17
CTC2_L_00015030-01
1 50301U 24993FW  26037.47790509  .00000000  00000+0  00000-0 0  9994
2 50301  85.0000 348.0000 0000000   0.0000 348.0000 15.80155563    14
CTC2_L_00015030-02
1 50302U 24665LK  26037.47790509  .00000000  00000+0  00000-0 0  9991
2 50302  85.0000 348.0000 0000000   0.0000  78.0000 15.80155563    15
CTC2_L_00015030-03
1 50303U 23275UF  26037.47790509  .00000000  00000+0  00000-0 0  9998
2 50303  85.0000 348.0000 0000000   0.0000 168.0000 15.80155563    16
CTC2_L_00015030-04
1 50304U 25178EN  26037.47790509  .00000000  00000+0  00000-0 0  9993
2 50304  85.0000 348.0000 0000000   0.0000 258.0000 15.80155563    17
